start=new Date('2022-08-02T00:00:00.000Z').valueOf();
sats=[{"EPHEMERIS_TYPE":"0","PERIOD":"95.592","TIME_SYSTEM":"UTC","RA_OF_ASC_NODE":"199.5210","OBJECT_TYPE":"PAYLOAD","MEAN_MOTION":"15.06399943","DECAY_DATE":null,"REF_FRAME":"TEME","LAUNCH_DATE":"2021-02-16","CLASSIFICATION_TYPE":"U","MEAN_ANOMALY":"293.0272","COUNTRY_CODE":"US","ARG_OF_PERICENTER":"67.0874","TLE_LINE2":"2 47671  53.0530 199.5210 0001485  67.0874 293.0272 15.06399943 81913","CENTER_NAME":"EARTH","MEAN_ELEMENT_THEORY":"SGP4","OBJECT_ID":"2021-012BD","MEAN_MOTION_DOT":"0.00000667","INCLINATION":"53.0530","ELEMENT_SET_NO":"999","MEAN_MOTION_DDOT":"0.0000000000000","OBJECT_NAME":"STARLINK-2064","EPOCH":"2022-08-01T15:42:39.161952","SITE":"AFETR","GP_ID":"209389120","PERIAPSIS":"546.185","ECCENTRICITY":"0.00014850","NORAD_CAT_ID":"47671","REV_AT_EPOCH":"8191","BSTAR":"0.00006365700000","RCS_SIZE":"LARGE","TLE_LINE1":"1 47671U 21012BD  22213.65461993  .00000667  00000-0  63657-4 0  9994","FILE":"3527139","SEMIMAJOR_AXIS":"6925.349","APOAPSIS":"548.242"},{"MEAN_MOTION_DOT":"0.00000997","INCLINATION":"53.0550","OBJECT_ID":"2021-012BE","MEAN_ELEMENT_THEORY":"SGP4","CENTER_NAME":"EARTH","ARG_OF_PERICENTER":"74.0809","TLE_LINE2":"2 47672  53.0550 190.8248 0001701  74.0809 286.0367 15.06405295 81980","CLASSIFICATION_TYPE":"U","MEAN_ANOMALY":"286.0367","COUNTRY_CODE":"US","LAUNCH_DATE":"2021-02-16","REF_FRAME":"TEME","DECAY_DATE":null,"MEAN_MOTION":"15.06405295","TIME_SYSTEM":"UTC","PERIOD":"95.592","OBJECT_TYPE":"PAYLOAD","RA_OF_ASC_NODE":"190.8248","EPHEMERIS_TYPE":"0","APOAPSIS":"548.375","SEMIMAJOR_AXIS":"6925.332","RCS_SIZE":"LARGE","BSTAR":"0.00008582700000","FILE":"3526929","TLE_LINE1":"1 47672U 21012BE  22213.36804024  .00000997  00000-0  85827-4 0  9998","REV_AT_EPOCH":"8198","PERIAPSIS":"546.019","NORAD_CAT_ID":"47672","ECCENTRICITY":"0.00017010","OBJECT_NAME":"STARLINK-2065","EPOCH":"2022-08-01T08:49:58.676736","SITE":"AFETR","GP_ID":"209332701","MEAN_MOTION_DDOT":"0.0000000000000","ELEMENT_SET_NO":"999"},{"EPHEMERIS_TYPE":"0","PERIOD":"95.592","TIME_SYSTEM":"UTC","RA_OF_ASC_NODE":"201.8263","OBJECT_TYPE":"PAYLOAD","REF_FRAME":"TEME","LAUNCH_DATE":"2021-02-16","MEAN_MOTION":"15.06400128","DECAY_DATE":null,"CLASSIFICATION_TYPE":"U","COUNTRY_CODE":"US","MEAN_ANOMALY":"300.6629","ARG_OF_PERICENTER":"59.4532","TLE_LINE2":"2 47673  53.0536 201.8263 0001749  59.4532 300.6629 15.06400128 81824","OBJECT_ID":"2021-012BF","CENTER_NAME":"EARTH","MEAN_ELEMENT_THEORY":"SGP4","MEAN_MOTION_DOT":"0.00001162","INCLINATION":"53.0536","MEAN_MOTION_DDOT":"0.0000000000000","ELEMENT_SET_NO":"999","EPOCH":"2022-08-01T03:30:11.148768","OBJECT_NAME":"STARLINK-2066","GP_ID":"209333949","SITE":"AFETR","PERIAPSIS":"546.002","NORAD_CAT_ID":"47673","ECCENTRICITY":"0.00017490","REV_AT_EPOCH":"8182","RCS_SIZE":"LARGE","BSTAR":"0.00009692000000","TLE_LINE1":"1 47673U 21012BF  22213.14596237  .00001162  00000-0  96920-4 0  9990","FILE":"3526929","APOAPSIS":"548.424","SEMIMAJOR_AXIS":"6925.348"},{"ECCENTRICITY":"0.00017210","NORAD_CAT_ID":"47674","PERIAPSIS":"546.025","REV_AT_EPOCH":"8184","MEAN_MOTION_DDOT":"0.0000000000000","ELEMENT_SET_NO":"999","GP_ID":"209334198","SITE":"AFETR","OBJECT_NAME":"STARLINK-2067","EPOCH":"2022-08-01T05:25:35.003712","SEMIMAJOR_AXIS":"6925.352","APOAPSIS":"548.408","TLE_LINE1":"1 47674U 21012BG  22213.22609958  .00000792  00000-0  72078-4 0  9991","FILE":"3526929","BSTAR":"0.00007207800000","RCS_SIZE":"LARGE","MEAN_MOTION":"15.06399018","DECAY_DATE":null,"LAUNCH_DATE":"2021-02-16","REF_FRAME":"TEME","COUNTRY_CODE":"US","MEAN_ANOMALY":"295.5297","CLASSIFICATION_TYPE":"U","EPHEMERIS_TYPE":"0","RA_OF_ASC_NODE":"201.4386","OBJECT_TYPE":"PAYLOAD","TIME_SYSTEM":"UTC","PERIOD":"95.592","CENTER_NAME":"EARTH","MEAN_ELEMENT_THEORY":"SGP4","OBJECT_ID":"2021-012BG","INCLINATION":"53.0545","MEAN_MOTION_DOT":"0.00000792","TLE_LINE2":"2 47674  53.0545 201.4386 0001721  64.5870 295.5297 15.06399018 81849","ARG_OF_PERICENTER":"64.5870"},{"SEMIMAJOR_AXIS":"6925.371","APOAPSIS":"548.485","TLE_LINE1":"1 47675U 21012BH  22213.68410258  .00000796  00000-0  72370-4 0  9994","FILE":"3527139","BSTAR":"0.00007237000000","RCS_SIZE":"LARGE","REV_AT_EPOCH":"8191","ECCENTRICITY":"0.00018040","NORAD_CAT_ID":"47675","PERIAPSIS":"545.987","SITE":"AFETR","GP_ID":"209389620","EPOCH":"2022-08-01T16:25:06.462912","OBJECT_NAME":"STARLINK-2078","ELEMENT_SET_NO":"999","MEAN_MOTION_DDOT":"0.0000000000000","INCLINATION":"53.0533","MEAN_MOTION_DOT":"0.00000796","MEAN_ELEMENT_THEORY":"SGP4","CENTER_NAME":"EARTH","OBJECT_ID":"2021-012BH","TLE_LINE2":"2 47675  53.0533 199.3983 0001804  70.5749 289.5435 15.06392659 81918","ARG_OF_PERICENTER":"70.5749","MEAN_ANOMALY":"289.5435","COUNTRY_CODE":"US","CLASSIFICATION_TYPE":"U","DECAY_DATE":null,"MEAN_MOTION":"15.06392659","REF_FRAME":"TEME","LAUNCH_DATE":"2021-02-16","OBJECT_TYPE":"PAYLOAD","RA_OF_ASC_NODE":"199.3983","TIME_SYSTEM":"UTC","PERIOD":"95.593","EPHEMERIS_TYPE":"0"},{"ARG_OF_PERICENTER":"73.3349","TLE_LINE2":"2 47676  53.0533  88.2306 0001726  73.3349 286.7830 15.06399350 83470","MEAN_ELEMENT_THEORY":"SGP4","CENTER_NAME":"EARTH","OBJECT_ID":"2021-012BJ","MEAN_MOTION_DOT":"0.00000140","INCLINATION":"53.0533","EPHEMERIS_TYPE":"0","TIME_SYSTEM":"UTC","PERIOD":"95.592","OBJECT_TYPE":"PAYLOAD","RA_OF_ASC_NODE":"88.2306","MEAN_MOTION":"15.06399350","DECAY_DATE":null,"REF_FRAME":"TEME","LAUNCH_DATE":"2021-02-16","CLASSIFICATION_TYPE":"U","MEAN_ANOMALY":"286.7830","COUNTRY_CODE":"US","BSTAR":"0.00002829500000","RCS_SIZE":"LARGE","TLE_LINE1":"1 47676U 21012BJ  22213.94486772  .00000140  00000-0  28295-4 0  9998","FILE":"3527139","SEMIMAJOR_AXIS":"6925.351","APOAPSIS":"548.411","ELEMENT_SET_NO":"999","MEAN_MOTION_DDOT":"0.0000000000000","EPOCH":"2022-08-01T22:40:36.571008","OBJECT_NAME":"STARLINK-2083","SITE":"AFETR","GP_ID":"209389362","PERIAPSIS":"546.020","ECCENTRICITY":"0.00017260","NORAD_CAT_ID":"47676","REV_AT_EPOCH":"8347"},{"OBJECT_ID":"2021-012BK","MEAN_ELEMENT_THEORY":"SGP4","CENTER_NAME":"EARTH","MEAN_MOTION_DOT":"0.00000601","INCLINATION":"53.0535","ARG_OF_PERICENTER":"55.6005","TLE_LINE2":"2 47677  53.0535 219.1550 0001885  55.6005 304.5162 15.06397286 81636","LAUNCH_DATE":"2021-02-16","REF_FRAME":"TEME","MEAN_MOTION":"15.06397286","DECAY_DATE":null,"CLASSIFICATION_TYPE":"U","COUNTRY_CODE":"US","MEAN_ANOMALY":"304.5162","EPHEMERIS_TYPE":"0","TIME_SYSTEM":"UTC","PERIOD":"95.592","OBJECT_TYPE":"PAYLOAD","RA_OF_ASC_NODE":"219.1550","APOAPSIS":"548.527","SEMIMAJOR_AXIS":"6925.357","RCS_SIZE":"LARGE","BSTAR":"0.00005923400000","TLE_LINE1":"1 47677U 21012BK  22213.73659608  .00000601  00000-0  59234-4 0  9995","FILE":"3527139","PERIAPSIS":"545.916","NORAD_CAT_ID":"47677","ECCENTRICITY":"0.00018850","REV_AT_EPOCH":"8163","ELEMENT_SET_NO":"999","MEAN_MOTION_DDOT":"0.0000000000000","EPOCH":"2022-08-01T17:40:41.901312","OBJECT_NAME":"STARLINK-2090","GP_ID":"209388619","SITE":"AFETR"},{"PERIAPSIS":"546.207","NORAD_CAT_ID":"47679","ECCENTRICITY":"0.00014870","REV_AT_EPOCH":"8160","MEAN_MOTION_DDOT":"0.0000000000000","ELEMENT_SET_NO":"999","OBJECT_NAME":"STARLINK-2095","EPOCH":"2022-08-01T10:25:28.539840","SITE":"AFETR","GP_ID":"209333698","APOAPSIS":"548.267","SEMIMAJOR_AXIS":"6925.372","RCS_SIZE":"LARGE","BSTAR":"-0.00001046900000","TLE_LINE1":"1 47679U 21012BM  22213.43435810 -.00000437  00000-0 -10469-4 0  9997","FILE":"3526929","REF_FRAME":"TEME","LAUNCH_DATE":"2021-02-16","DECAY_DATE":null,"MEAN_MOTION":"15.06392264","CLASSIFICATION_TYPE":"U","COUNTRY_CODE":"US","MEAN_ANOMALY":"293.3549","EPHEMERIS_TYPE":"0","TIME_SYSTEM":"UTC","PERIOD":"95.593","OBJECT_TYPE":"PAYLOAD","RA_OF_ASC_NODE":"220.5328","OBJECT_ID":"2021-012BM","MEAN_ELEMENT_THEORY":"SGP4","CENTER_NAME":"EARTH","MEAN_MOTION_DOT":"-0.00000437","INCLINATION":"53.0536","ARG_OF_PERICENTER":"66.7597","TLE_LINE2":"2 47679  53.0536 220.5328 0001487  66.7597 293.3549 15.06392264 81607"},{"EPHEMERIS_TYPE":"0","PERIOD":"95.593","TIME_SYSTEM":"UTC","OBJECT_TYPE":"PAYLOAD","RA_OF_ASC_NODE":"344.3696","MEAN_MOTION":"15.06393419","DECAY_DATE":null,"REF_FRAME":"TEME","LAUNCH_DATE":"2021-03-04","CLASSIFICATION_TYPE":"U","COUNTRY_CODE":"US","MEAN_ANOMALY":"276.5697","ARG_OF_PERICENTER":"83.5445","TLE_LINE2":"2 47722  53.0555 344.3696 0001348  83.5445 276.5697 15.06393419 79646","CENTER_NAME":"EARTH","MEAN_ELEMENT_THEORY":"SGP4","OBJECT_ID":"2021-017A","MEAN_MOTION_DOT":"-0.00000087","INCLINATION":"53.0555","MEAN_MOTION_DDOT":"0.0000000000000","ELEMENT_SET_NO":"999","OBJECT_NAME":"STARLINK-2068","EPOCH":"2022-08-01T17:49:24.016512","SITE":"AFETR","GP_ID":"209389625","PERIAPSIS":"546.300","ECCENTRICITY":"0.00013480","NORAD_CAT_ID":"47722","REV_AT_EPOCH":"7964","BSTAR":"0.00001303300000","RCS_SIZE":"LARGE","TLE_LINE1":"1 47722U 21017A   22213.74263908 -.00000087  00000-0  13033-4 0  9992","FILE":"3527139","SEMIMAJOR_AXIS":"6925.369","APOAPSIS":"548.167"},{"ELEMENT_SET_NO":"999","MEAN_MOTION_DDOT":"0.0000000000000","GP_ID":"209389367","SITE":"AFETR","OBJECT_NAME":"STARLINK-2107","EPOCH":"2022-08-01T21:11:42.237600","ECCENTRICITY":"0.00010550","NORAD_CAT_ID":"47723","PERIAPSIS":"546.471","REV_AT_EPOCH":"8054","TLE_LINE1":"1 47723U 21017B   22213.88312775  .00001879  00000-0  14495-3 0  9996","FILE":"3527139","BSTAR":"0.00014495000000","RCS_SIZE":"LARGE","SEMIMAJOR_AXIS":"6925.336","APOAPSIS":"547.932","EPHEMERIS_TYPE":"0","OBJECT_TYPE":"PAYLOAD","RA_OF_ASC_NODE":"278.5155","TIME_SYSTEM":"UTC","PERIOD":"95.592","DECAY_DATE":null,"MEAN_MOTION":"15.06403967","LAUNCH_DATE":"2021-03-04","REF_FRAME":"TEME","MEAN_ANOMALY":"279.3758","COUNTRY_CODE":"US","CLASSIFICATION_TYPE":"U","TLE_LINE2":"2 47723  53.0536 278.5155 0001055  80.7351 279.3758 15.06403967 80544","ARG_OF_PERICENTER":"80.7351","CENTER_NAME":"EARTH","MEAN_ELEMENT_THEORY":"SGP4","OBJECT_ID":"2021-017B","INCLINATION":"53.0536","MEAN_MOTION_DOT":"0.00001879"}];
